[{"OBJECT_NAME":"STARLINK-34467","OBJECT_ID":"2025-129M","EPOCH":"2026-03-09T11:03:55.279008","MEAN_MOTION":14.9833188,"ECCENTRICITY":0.00029874,"INCLINATION":70.001,"RA_OF_ASC_NODE":75.0123,"ARG_OF_PERICENTER":271.0135,"MEAN_ANOMALY":89.0682,"EPHEMERIS_TYPE":0,"CLASSIFICATION_TYPE":"U","NORAD_CAT_ID":64423,"ELEMENT_SET_NO":999,"REV_AT_EPOCH":4125,"BSTAR":0.00033092987,"MEAN_MOTION_DOT":3.858e-5,"MEAN_MOTION_DDOT":0},{"OBJECT_NAME":"COSMOS 2242","OBJECT_ID":"1993-024A","EPOCH":"2026-03-09T23:17:07.942848","MEAN_MOTION":14.96550444,"ECCENTRICITY":0.00151707,"INCLINATION":82.5157,"RA_OF_ASC_NODE":266.4481,"ARG_OF_PERICENTER":307.8411,"MEAN_ANOMALY":52.1437,"EPHEMERIS_TYPE":0,"CLASSIFICATION_TYPE":"U","NORAD_CAT_ID":22626,"ELEMENT_SET_NO":999,"REV_AT_EPOCH":78043,"BSTAR":0.00021609887,"MEAN_MOTION_DOT":2.488e-5,"MEAN_MOTION_DDOT":0}]
